NORAD_CAT_ID,OBJECT_NAME,OBJECT_TYPE,EPOCH,MEAN_MOTION,ECCENTRICITY,INCLINATION,RA_OF_ASC_NODE,ARG_OF_PERICENTER,MEAN_ANOMALY,BSTAR,MEAN_MOTION_DOT,MEAN_MOTION_DDOT,TLE_LINE0,TLE_LINE1,TLE_LINE2,SEMIMAJOR_AXIS,PERIOD,APOGEE,PERIGEE,DECAYED
53909.0,STARLINK-4796,PAYLOAD,2024-07-11 06:40:29,15.08840758,0.0001356,53.2166,156.6699,90.2968,269.818,8.6104e-05,1.083e-05,0.0,0 STARLINK-4796,1 53909U 22119Z   24193.27812329  .00001083  00000-0  86104-4 0  9999,2 53909  53.2166 156.6699 0001356  90.2968 269.8180 15.08840758100272,6917.878,95.438,540.681,538.805,0.0
53909.0,STARLINK-4796,PAYLOAD,2024-07-12 14:28:12,15.08842415,0.0001378,53.2172,150.7233,87.8786,272.2364,8.8002e-05,1.113e-05,0.0,0 STARLINK-4796,1 53909U 22119Z   24194.60292465  .00001113  00000-0  88002-4 0  9993,2 53909  53.2172 150.7233 0001378  87.8786 272.2364 15.08842415100478,6917.873,95.437,540.691,538.785,0.0
53909.0,STARLINK-4796,PAYLOAD,2024-07-13 06:22:03,15.08851678,0.000132,53.2167,147.7468,97.007,263.1072,9.6585e-05,1.25e-05,0.0,0 STARLINK-4796,1 53909U 22119Z   24195.26531654  .00001250  00000-0  96585-4 0  9999,2 53909  53.2167 147.7468 0001320  97.0070 263.1072 15.08851678100155,6917.845,95.437,540.623,538.797,0.0
53909.0,STARLINK-4796,PAYLOAD,2024-07-13 14:18:59,15.08839697,0.0001464,53.2171,146.261,90.4156,269.7004,7.1528e-06,-1.74e-06,0.0,0 STARLINK-4796,1 53909U 22119Z   24195.59652692 -.00000174  00000-0  71528-5 0  9997,2 53909  53.2171 146.2610 0001464  90.4156 269.7004 15.08839697100620,6917.881,95.438,540.759,538.734,0.0
53909.0,STARLINK-4796,PAYLOAD,2024-07-13 20:40:32,15.0884068,0.0001423,53.2164,145.0716,91.3517,268.7638,5.8291e-06,-1.95e-06,0.0,0 STARLINK-4796,1 53909U 22119Z   24195.86148713 -.00000195  00000-0  58291-5 0  9996,2 53909  53.2164 145.0716 0001423  91.3517 268.7638 15.08840680100246,6917.878,95.438,540.728,538.759,0.0
53909.0,STARLINK-4796,PAYLOAD,2024-07-14 06:12:50,15.08846569,0.0001378,53.2167,143.2872,94.3623,265.7527,5.5435e-05,5.95e-06,0.0,0 STARLINK-4796,1 53909U 22119Z   24196.25892109  .00000595  00000-0  55435-4 0  9994,2 53909  53.2167 143.2872 0001378  94.3623 265.7527 15.08846569100305,6917.86,95.437,540.679,538.772,0.0
53909.0,STARLINK-4796,PAYLOAD,2024-07-14 14:09:46,15.0884409,0.0001396,53.2169,141.8003,94.1875,265.9277,5.0145e-05,5.1e-06,0.0,0 STARLINK-4796,1 53909U 22119Z   24196.59012209  .00000510  00000-0  50145-4 0  9996,2 53909  53.2169 141.8003 0001396  94.1875 265.9277 15.08844090100776,6917.868,95.437,540.699,538.767,0.0
53909.0,STARLINK-4796,PAYLOAD,2024-07-15 02:52:51,15.08847733,0.0001315,53.2171,139.4215,98.946,261.1681,9.5037e-05,1.225e-05,0.0,0 STARLINK-4796,1 53909U 22119Z   24197.12003716  .00001225  00000-0  95037-4 0  9992,2 53909  53.2171 139.4215 0001315  98.9460 261.1681 15.08847733100853,6917.857,95.437,540.631,538.812,0.0
53909.0,STARLINK-4796,PAYLOAD,2024-07-15 20:22:06,15.0883519,0.000152,53.2174,136.1503,95.2988,264.8178,3.2294e-05,2.26e-06,0.0,0 STARLINK-4796,1 53909U 22119Z   24197.84868805  .00000226  00000-0  32294-4 0  9995,2 53909  53.2174 136.1503 0001520  95.2988 264.8178 15.08835190100544,6917.895,95.438,540.812,538.709,0.0
53909.0,STARLINK-4796,PAYLOAD,2024-07-16 05:54:25,15.08842036,0.0001222,53.2176,134.366,89.3802,270.733,4.5143e-05,4.31e-06,0.0,0 STARLINK-4796,1 53909U 22119Z   24198.24612439  .00000431  00000-0  45143-4 0  9995,2 53909  53.2176 134.3660 0001222  89.3802 270.7330 15.08842036101025,6917.874,95.437,540.585,538.894,0.0
53909.0,STARLINK-4796,PAYLOAD,2024-07-17 02:34:23,15.08879878,0.0001448,53.2171,130.5016,105.0717,255.0436,0.00061506,9.525e-05,0.0,0 STARLINK-4796,1 53909U 22119Z   24199.10722143  .00009525  00000-0  61506-3 0  9998,2 53909  53.2171 130.5016 0001448 105.0717 255.0436 15.08879878100738,6917.759,95.435,540.625,538.622,0.0
53909.0,STARLINK-4796,PAYLOAD,2024-07-17 12:06:42,15.08861417,0.0001676,53.2166,128.7156,68.14,291.977,0.00025475,3.771e-05,0.0,0 STARLINK-4796,1 53909U 22119Z   24199.50466277  .00003771  00000-0  25475-3 0  9997,2 53909  53.2166 128.7156 0001676  68.1400 291.9770 15.08861417100793,6917.815,95.436,540.839,538.521,0.0
53909.0,STARLINK-4796,PAYLOAD,2024-07-18 02:25:13,15.08822658,0.0001185,53.2176,126.0447,86.3122,273.8005,-0.00020429,-3.536e-05,0.0,0 STARLINK-4796,1 53909U 22119Z   24200.10084872 -.00003536  00000-0 -20429-3 0  9998,2 53909  53.2176 126.0447 0001185  86.3122 273.8005 15.08822658100880,6917.933,95.439,540.618,538.979,0.0
53909.0,STARLINK-4796,PAYLOAD,2024-07-18 11:57:32,15.0882802,0.0001224,53.2173,124.2546,70.6304,289.4821,-0.00017675,-3.099e-05,0.0,0 STARLINK-4796,1 53909U 22119Z   24200.49828866 -.00003099  00000-0 -17675-3 0  9992,2 53909  53.2173 124.2546 0001224  70.6304 289.4821 15.08828020101361,6917.917,95.438,540.629,538.935,0.0
53909.0,STARLINK-4796,PAYLOAD,2024-07-19 03:51:23,15.08841986,0.0001119,53.2163,121.2821,85.1252,274.9868,4.7573e-05,4.69e-06,0.0,0 STARLINK-4796,1 53909U 22119Z   24201.16068644  .00000469  00000-0  47573-4 0  9994,2 53909  53.2163 121.2821 0001119  85.1252 274.9868 15.08841986101040,6917.874,95.437,540.513,538.965,0.0
53909.0,STARLINK-4796,PAYLOAD,2024-07-19 22:56:02,15.08833099,0.0001459,53.2165,117.7143,67.3734,292.7412,0.00035546,5.373e-05,0.0,0 STARLINK-4796,1 53909U 22119Z   24201.95557915  .00005373  00000-0  35546-3 0  9990,2 53909  53.2165 117.7143 0001459  67.3734 292.7412 15.08833099101581,6917.901,95.438,540.776,538.757,0.0
53909.0,STARLINK-4796,PAYLOAD,2024-07-20 11:39:07,15.08832615,0.0001806,53.218,115.3333,78.5732,281.5463,0.00019947,2.887e-05,0.0,0 STARLINK-4796,1 53909U 22119Z   24202.48550134  .00002887  00000-0  19947-3 0  9999,2 53909  53.2180 115.3333 0001806  78.5732 281.5463 15.08832615101249,6917.903,95.438,541.017,538.519,0.0
53909.0,STARLINK-4796,PAYLOAD,2024-07-20 22:46:49,15.08837057,0.0001362,53.2166,113.2541,78.7943,281.3203,0.00012522,1.705e-05,0.0,0 STARLINK-4796,1 53909U 22119Z   24202.94917860  .00001705  00000-0  12522-3 0  9993,2 53909  53.2166 113.2541 0001362  78.7943 281.3203 15.08837057101733,6917.889,95.438,540.697,538.812,0.0
53909.0,STARLINK-4796,PAYLOAD,2024-07-21 03:32:58,15.08846074,0.0001179,53.2163,112.358,98.601,261.5116,0.00021295,3.103e-05,0.0,0 STARLINK-4796,1 53909U 22119Z   24203.14789359  .00003103  00000-0  21295-3 0  9997,2 53909  53.2163 112.3580 0001179  98.6010 261.5116 15.08846074101344,6917.862,95.437,540.542,538.911,0.0
53909.0,STARLINK-4796,PAYLOAD,2024-07-21 21:02:13,15.08838916,0.0001026,53.2169,109.0919,82.469,277.6418,-4.643e-07,-2.95e-06,0.0,0 STARLINK-4796,1 53909U 22119Z   24203.87653937 -.00000295  00000-0 -46430-6 0  9991,2 53909  53.2169 109.0919 0001026  82.4690 277.6418 15.08838916101456,6917.884,95.438,540.458,539.039,0.0
53909.0,STARLINK-4796,PAYLOAD,2024-07-21 22:37:36,15.08831393,0.0001735,53.2174,108.7872,104.5861,255.5324,0.00043743,6.679e-05,0.0,0 STARLINK-4796,1 53909U 22119Z   24203.94278469  .00006679  00000-0  43743-3 0  9993,2 53909  53.2174 108.7872 0001735 104.5861 255.5324 15.08831393101889,6917.907,95.438,540.972,538.571,0.0
53909.0,STARLINK-4796,PAYLOAD,2024-07-22 03:23:45,15.08844842,0.000138,53.2166,107.8986,95.9422,264.1727,0.00018559,2.667e-05,0.0,0 STARLINK-4796,1 53909U 22119Z   24204.14149838  .00002667  00000-0  18559-3 0  9993,2 53909  53.2166 107.8986 0001380  95.9422 264.1727 15.08844842101918,6917.866,95.437,540.685,538.776,0.0
53909.0,STARLINK-4796,PAYLOAD,2024-07-22 22:28:22,15.08850969,0.0001374,53.2158,104.3293,91.5739,268.541,0.00035055,5.297e-05,0.0,0 STARLINK-4796,1 53909U 22119Z   24204.93637623  .00005297  00000-0  35055-3 0  9996,2 53909  53.2158 104.3293 0001374  91.5739 268.5410 15.08850969102036,6917.847,95.437,540.662,538.761,0.0
53909.0,STARLINK-4796,PAYLOAD,2024-07-23 03:14:32,15.08856545,0.0001517,53.2167,103.4372,90.7959,269.3207,0.00046661,7.149e-05,0.0,0 STARLINK-4796,1 53909U 22119Z   24205.13509424  .00007149  00000-0  46661-3 0  9999,2 53909  53.2167 103.4372 0001517  90.7959 269.3207 15.08856545102060,6917.83,95.437,540.744,538.645,0.0
53909.0,STARLINK-4796,PAYLOAD,2024-07-23 22:19:09,15.08841355,0.0001561,53.216,99.8629,130.5706,229.5422,7.4051e-05,8.91e-06,0.0,0 STARLINK-4796,1 53909U 22119Z   24205.92997494  .00000891  00000-0  74051-4 0  9996,2 53909  53.2160  99.8629 0001561 130.5706 229.5422 15.08841355102181,6917.876,95.437,540.821,538.661,0.0
53909.0,STARLINK-4796,PAYLOAD,2024-07-23 23:54:33,15.08840185,0.0001181,53.2159,99.5672,76.5982,283.5142,0.00011249,1.503e-05,0.0,0 STARLINK-4796,1 53909U 22119Z   24205.99621942  .00001503  00000-0  11249-3 0  9995,2 53909  53.2159  99.5672 0001181  76.5982 283.5142 15.08840185101770,6917.88,95.438,540.562,538.928,0.0
53909.0,STARLINK-4796,PAYLOAD,2024-07-24 22:09:57,15.08848044,0.0001294,53.2172,95.4153,100.607,259.5068,0.00015601,2.196e-05,0.0,0 STARLINK-4796,1 53909U 22119Z   24206.92357816  .00002196  00000-0  15601-3 0  9990,2 53909  53.2172  95.4153 0001294 100.6070 259.5068 15.08848044102331,6917.856,95.437,540.616,538.826,0.0
53909.0,STARLINK-4796,PAYLOAD,2024-07-25 02:56:06,15.08848125,0.0001399,53.2169,94.5185,81.947,278.1681,0.00037756,5.727e-05,0.0,0 STARLINK-4796,1 53909U 22119Z   24207.12229988  .00005727  00000-0  37756-3 0  9999,2 53909  53.2169  94.5185 0001399  81.9470 278.1681 15.08848125101947,6917.856,95.437,540.688,538.753,0.0
53909.0,STARLINK-4796,PAYLOAD,2024-07-25 22:00:44,15.08840617,0.0001176,53.2164,90.9465,98.4778,261.6347,0.00017084,2.432e-05,0.0,0 STARLINK-4796,1 53909U 22119Z   24207.91718199  .00002432  00000-0  17084-3 0  9995,2 53909  53.2164  90.9465 0001176  98.4778 261.6347 15.08840617102484,6917.879,95.438,540.557,538.93,0.0
53909.0,STARLINK-4796,PAYLOAD,2024-07-26 02:46:53,15.08844429,0.0001176,53.2163,90.0604,90.1256,269.9871,0.00025099,3.709e-05,0.0,0 STARLINK-4796,1 53909U 22119Z   24208.11590230  .00003709  00000-0  25099-3 0  9995,2 53909  53.2163  90.0604 0001176  90.1256 269.9871 15.08844429102094,6917.867,95.437,540.545,538.918,0.0
